CCSDS_OMM_VERS = 2.0
CREATION_DATE  = 
ORIGINATOR     = 

OBJECT_NAME    = SITRO-AIS-64
OBJECT_ID      = 2025-313AW
CENTER_NAME    = EARTH
REF_FRAME      = TEME
TIME_SYSTEM    = UTC
MEAN_ELEMENT_THEORY = SGP/SGP4

EPOCH          = 2026-01-12T22:28:29.899488
MEAN_MOTION    = 15.21512639
ECCENTRICITY   = .00097458
INCLINATION    = 97.4121
RA_OF_ASC_NODE = 90.1665
ARG_OF_PERICENTER = 174.0456
MEAN_ANOMALY   = 186.0898

EPHEMERIS_TYPE = 0
CLASSIFICATION_TYPE = U
NORAD_CAT_ID   = 67292
ELEMENT_SET_NO = 999
REV_AT_EPOCH   = 234
BSTAR          = .34036959E-3
MEAN_MOTION_DOT = .7603E-4
MEAN_MOTION_DDOT = 0

CCSDS_OMM_VERS = 2.0
CREATION_DATE  = 
ORIGINATOR     = 

OBJECT_NAME    = 2025-313AX
OBJECT_ID      = 2025-313AX
CENTER_NAME    = EARTH
REF_FRAME      = TEME
TIME_SYSTEM    = UTC
MEAN_ELEMENT_THEORY = SGP/SGP4

EPOCH          = 2026-01-12T22:29:47.991264
MEAN_MOTION    = 15.21314657
ECCENTRICITY   = .00116515
INCLINATION    = 97.4115
RA_OF_ASC_NODE = 90.1620
ARG_OF_PERICENTER = 165.6837
MEAN_ANOMALY   = 194.4732

EPHEMERIS_TYPE = 0
CLASSIFICATION_TYPE = U
NORAD_CAT_ID   = 67293
ELEMENT_SET_NO = 999
REV_AT_EPOCH   = 234
BSTAR          = .17609809E-3
MEAN_MOTION_DOT = .3878E-4
MEAN_MOTION_DDOT = 0

CCSDS_OMM_VERS = 2.0
CREATION_DATE  = 
ORIGINATOR     = 

OBJECT_NAME    = SITRO-AIS-63
OBJECT_ID      = 2025-313AY
CENTER_NAME    = EARTH
REF_FRAME      = TEME
TIME_SYSTEM    = UTC
MEAN_ELEMENT_THEORY = SGP/SGP4

EPOCH          = 2026-01-12T22:27:52.913376
MEAN_MOTION    = 15.21554979
ECCENTRICITY   = .00096457
INCLINATION    = 97.4124
RA_OF_ASC_NODE = 90.1673
ARG_OF_PERICENTER = 174.2412
MEAN_ANOMALY   = 185.8937

EPHEMERIS_TYPE = 0
CLASSIFICATION_TYPE = U
NORAD_CAT_ID   = 67294
ELEMENT_SET_NO = 999
REV_AT_EPOCH   = 234
BSTAR          = .33805968E-3
MEAN_MOTION_DOT = .756E-4
MEAN_MOTION_DDOT = 0

CCSDS_OMM_VERS = 2.0
CREATION_DATE  = 
ORIGINATOR     = 

OBJECT_NAME    = ZORKIY-2M-5
OBJECT_ID      = 2025-313AZ
CENTER_NAME    = EARTH
REF_FRAME      = TEME
TIME_SYSTEM    = UTC
MEAN_ELEMENT_THEORY = SGP/SGP4

EPOCH          = 2026-01-12T22:27:52.355232
MEAN_MOTION    = 15.21526472
ECCENTRICITY   = .00111929
INCLINATION    = 97.4114
RA_OF_ASC_NODE = 90.1638
ARG_OF_PERICENTER = 165.3820
MEAN_ANOMALY   = 194.7742

EPHEMERIS_TYPE = 0
CLASSIFICATION_TYPE = U
NORAD_CAT_ID   = 67295
ELEMENT_SET_NO = 999
REV_AT_EPOCH   = 234
BSTAR          = .30242108E-3
MEAN_MOTION_DOT = .6752E-4
MEAN_MOTION_DDOT = 0

CCSDS_OMM_VERS = 2.0
CREATION_DATE  = 
ORIGINATOR     = 

OBJECT_NAME    = SITRO-AIS-62
OBJECT_ID      = 2025-313BA
CENTER_NAME    = EARTH
REF_FRAME      = TEME
TIME_SYSTEM    = UTC
MEAN_ELEMENT_THEORY = SGP/SGP4

EPOCH          = 2026-01-12T22:27:09.856800
MEAN_MOTION    = 15.21603167
ECCENTRICITY   = .0009413
INCLINATION    = 97.4128
RA_OF_ASC_NODE = 90.1689
ARG_OF_PERICENTER = 174.7035
MEAN_ANOMALY   = 185.4303

EPHEMERIS_TYPE = 0
CLASSIFICATION_TYPE = U
NORAD_CAT_ID   = 67296
ELEMENT_SET_NO = 999
REV_AT_EPOCH   = 234
BSTAR          = .33011356E-3
MEAN_MOTION_DOT = .7391E-4
MEAN_MOTION_DDOT = 0

CCSDS_OMM_VERS = 2.0
CREATION_DATE  = 
ORIGINATOR     = 

OBJECT_NAME    = SITRO-AIS-61
OBJECT_ID      = 2025-313BB
CENTER_NAME    = EARTH
REF_FRAME      = TEME
TIME_SYSTEM    = UTC
MEAN_ELEMENT_THEORY = SGP/SGP4

EPOCH          = 2026-01-12T22:26:20.558688
MEAN_MOTION    = 15.21665762
ECCENTRICITY   = .0009089
INCLINATION    = 97.4130
RA_OF_ASC_NODE = 90.1695
ARG_OF_PERICENTER = 176.6445
MEAN_ANOMALY   = 183.4854

EPHEMERIS_TYPE = 0
CLASSIFICATION_TYPE = U
NORAD_CAT_ID   = 67297
ELEMENT_SET_NO = 999
REV_AT_EPOCH   = 234
BSTAR          = .34070325E-3
MEAN_MOTION_DOT = .7644E-4
MEAN_MOTION_DDOT = 0

CCSDS_OMM_VERS = 2.0
CREATION_DATE  = 
ORIGINATOR     = 

OBJECT_NAME    = TIANHUI 7
OBJECT_ID      = 2025-314A
CENTER_NAME    = EARTH
REF_FRAME      = TEME
TIME_SYSTEM    = UTC
MEAN_ELEMENT_THEORY = SGP/SGP4

EPOCH          = 2026-01-08T03:21:31.038912
MEAN_MOTION    = 15.25383404
ECCENTRICITY   = .00013928
INCLINATION    = 97.4205
RA_OF_ASC_NODE = 85.2818
ARG_OF_PERICENTER = 102.4970
MEAN_ANOMALY   = 257.6424

EPHEMERIS_TYPE = 0
CLASSIFICATION_TYPE = U
NORAD_CAT_ID   = 67300
ELEMENT_SET_NO = 999
REV_AT_EPOCH   = 138
BSTAR          = .82629326E-4
MEAN_MOTION_DOT = .2013E-4
MEAN_MOTION_DDOT = 0

CCSDS_OMM_VERS = 2.0
CREATION_DATE  = 
ORIGINATOR     = 

OBJECT_NAME    = CZ-4B R/B
OBJECT_ID      = 2025-314B
CENTER_NAME    = EARTH
REF_FRAME      = TEME
TIME_SYSTEM    = UTC
MEAN_ELEMENT_THEORY = SGP/SGP4

EPOCH          = 2026-01-12T22:39:18.380736
MEAN_MOTION    = 15.69073899
ECCENTRICITY   = .01399856
INCLINATION    = 97.3749
RA_OF_ASC_NODE = 90.8419
ARG_OF_PERICENTER = 327.1285
MEAN_ANOMALY   = 32.1326

EPHEMERIS_TYPE = 0
CLASSIFICATION_TYPE = U
NORAD_CAT_ID   = 67301
ELEMENT_SET_NO = 999
REV_AT_EPOCH   = 212
BSTAR          = .43467875E-3
MEAN_MOTION_DOT = .88215E-3
MEAN_MOTION_DDOT = .4422489E-5

CCSDS_OMM_VERS = 2.0
CREATION_DATE  = 
ORIGINATOR     = 

OBJECT_NAME    = 2025-315A
OBJECT_ID      = 2025-315A
CENTER_NAME    = EARTH
REF_FRAME      = TEME
TIME_SYSTEM    = UTC
MEAN_ELEMENT_THEORY = SGP/SGP4

EPOCH          = 2026-01-12T22:52:21.598464
MEAN_MOTION    = 1.00271414
ECCENTRICITY   = .00014777
INCLINATION    = 3.0055
RA_OF_ASC_NODE = 99.2349
ARG_OF_PERICENTER = 304.6229
MEAN_ANOMALY   = 124.7008

EPHEMERIS_TYPE = 0
CLASSIFICATION_TYPE = U
NORAD_CAT_ID   = 67302
ELEMENT_SET_NO = 999
REV_AT_EPOCH   = 6
BSTAR          = 0
MEAN_MOTION_DOT = -.5E-6
MEAN_MOTION_DDOT = 0

CCSDS_OMM_VERS = 2.0
CREATION_DATE  = 
ORIGINATOR     = 

OBJECT_NAME    = CZ-7A R/B
OBJECT_ID      = 2025-315B
CENTER_NAME    = EARTH
REF_FRAME      = TEME
TIME_SYSTEM    = UTC
MEAN_ELEMENT_THEORY = SGP/SGP4

EPOCH          = 2026-01-12T13:52:04.036800
MEAN_MOTION    = 2.42843860
ECCENTRICITY   = .72010243
INCLINATION    = 19.5544
RA_OF_ASC_NODE = 95.3702
ARG_OF_PERICENTER = 188.4888
MEAN_ANOMALY   = 144.4732

EPHEMERIS_TYPE = 0
CLASSIFICATION_TYPE = U
NORAD_CAT_ID   = 67303
ELEMENT_SET_NO = 999
REV_AT_EPOCH   = 31
BSTAR          = .31472905E-2
MEAN_MOTION_DOT = .127182E-2
MEAN_MOTION_DDOT = .413712E-6

CCSDS_OMM_VERS = 2.0
CREATION_DATE  = 
ORIGINATOR     = 

OBJECT_NAME    = CSG-3
OBJECT_ID      = 2026-001A
CENTER_NAME    = EARTH
REF_FRAME      = TEME
TIME_SYSTEM    = UTC
MEAN_ELEMENT_THEORY = SGP/SGP4

EPOCH          = 2026-01-12T22:16:38.758368
MEAN_MOTION    = 14.81535128
ECCENTRICITY   = .00041412
INCLINATION    = 97.8607
RA_OF_ASC_NODE = 198.8563
ARG_OF_PERICENTER = 147.0365
MEAN_ANOMALY   = 213.1107

EPHEMERIS_TYPE = 0
CLASSIFICATION_TYPE = U
NORAD_CAT_ID   = 67304
ELEMENT_SET_NO = 999
REV_AT_EPOCH   = 146
BSTAR          = .52347265E-4
MEAN_MOTION_DOT = .359E-5
MEAN_MOTION_DDOT = 0

CCSDS_OMM_VERS = 2.0
CREATION_DATE  = 
ORIGINATOR     = 

OBJECT_NAME    = STARLINK-36490
OBJECT_ID      = 2026-002A
CENTER_NAME    = EARTH
REF_FRAME      = TEME
TIME_SYSTEM    = UTC
MEAN_ELEMENT_THEORY = SGP/SGP4

EPOCH          = 2026-01-12T22:00:01.999584
MEAN_MOTION    = 15.94212703
ECCENTRICITY   = .00017243
INCLINATION    = 42.9980
RA_OF_ASC_NODE = 288.8017
ARG_OF_PERICENTER = 257.6549
MEAN_ANOMALY   = 30.6921

EPHEMERIS_TYPE = 0
CLASSIFICATION_TYPE = U
NORAD_CAT_ID   = 67305
ELEMENT_SET_NO = 999
REV_AT_EPOCH   = 251
BSTAR          = -.36191617E-2
MEAN_MOTION_DOT = -.1395762E-1
MEAN_MOTION_DDOT = .56820511E-3

