SITRO-AIS-64            
1 67292U 25313AW  26012.93645717  .00007603  00000+0  34037-3 0  9998
2 67292  97.4121  90.1665 0009745 174.0456 186.0898 15.21512639  2345
2025-313AX              
1 67293U 25313AX  26012.93736101  .00003878  00000+0  17610-3 0  9995
2 67293  97.4115  90.1620 0011651 165.6837 194.4732 15.21314657  2348
SITRO-AIS-63            
1 67294U 25313AY  26012.93602909  .00007560  00000+0  33806-3 0  9991
2 67294  97.4124  90.1673 0009645 174.2412 185.8937 15.21554979  2346
ZORKIY-2M-5             
1 67295U 25313AZ  26012.93602263  .00006752  00000+0  30242-3 0  9998
2 67295  97.4114  90.1638 0011192 165.3820 194.7742 15.21526472  2341
SITRO-AIS-62            
1 67296U 25313BA  26012.93553075  .00007391  00000+0  33011-3 0  9992
2 67296  97.4128  90.1689 0009413 174.7035 185.4303 15.21603167  2345
SITRO-AIS-61            
1 67297U 25313BB  26012.93496017  .00007644  00000+0  34070-3 0  9992
2 67297  97.4130  90.1695 0009089 176.6445 183.4854 15.21665762  2349
TIANHUI 7               
1 67300U 25314A   26008.13994258  .00002013  00000+0  82629-4 0  9994
2 67300  97.4205  85.2818 0001392 102.4970 257.6424 15.25383404  1382
CZ-4B R/B               
1 67301U 25314B   26012.94396274  .00088215  44225-5  43468-3 0  9991
2 67301  97.3749  90.8419 0139985 327.1285  32.1326 15.69073899  2121
2025-315A               
1 67302U 25315A   26012.95302776 -.00000050  00000+0  00000+0 0  9998
2 67302   3.0055  99.2349 0001477 304.6229 124.7008  1.00271414    62
CZ-7A R/B               
1 67303U 25315B   26012.57782450  .00127182  41371-6  31473-2 0  9997
2 67303  19.5544  95.3702 7201024 188.4888 144.4732  2.42843860   312
CSG-3                   
1 67304U 26001A   26012.92822637  .00000359  00000+0  52347-4 0  9990
2 67304  97.8607 198.8563 0004141 147.0365 213.1107 14.81535128  1469
STARLINK-36490          
1 67305U 26002A   26012.91668981 -.01395762  56821-3 -36192-2 0  9993
2 67305  42.9980 288.8017 0001724 257.6549  30.6921 15.94212703  2514
